OBJECT_NAME,OBJECT_ID,EPOCH,MEAN_MOTION,ECCENTRICITY,INCLINATION,RA_OF_ASC_NODE,ARG_OF_PERICENTER,MEAN_ANOMALY,EPHEMERIS_TYPE,CLASSIFICATION_TYPE,NORAD_CAT_ID,ELEMENT_SET_NO,REV_AT_EPOCH,BSTAR,MEAN_MOTION_DOT,MEAN_MOTION_DDOT
IRIDIUM 154,2018-061F,2026-07-10T01:06:06.368256,14.34217301,.00023133,86.3945,47.2461,90.2087,269.9374,0,U,43574,999,41668,.74938308E-4,.23E-5,0
IRIDIUM 163,2018-061G,2026-07-10T00:38:42.377568,14.34217315,.00021782,86.3939,47.1685,85.1435,275.0009,0,U,43575,999,41665,.5616075E-4,.177E-5,0
IRIDIUM 156,2018-061H,2026-07-10T01:42:38.426112,14.34217543,.00020578,86.3939,47.1572,90.4782,269.6649,0,U,43576,999,41665,.4126852E-4,.135E-5,0
IRIDIUM 164,2018-061J,2026-07-09T13:31:58.583136,14.34216708,.00023074,86.3941,47.4104,89.7365,270.4095,0,U,43577,999,41662,.36382169E-4,.122E-5,0
IRIDIUM 159,2018-061K,2026-07-10T07:11:26.350656,14.34217565,.00021865,86.3939,47.0388,85.2947,274.8498,0,U,43578,999,41669,.39381727E-4,.13E-5,0
IRIDIUM 180,2019-002A,2026-07-09T16:06:31.029408,14.34216744,.00021219,86.3984,344.1979,91.4144,268.7295,0,U,43922,999,39221,-.14864566E-4,-.22E-6,0
IRIDIUM 176,2019-002B,2026-07-09T09:13:42.327552,14.72244323,.00023455,86.6104,344.2577,89.0297,271.1189,0,U,43923,999,40251,.85864382E-4,.566E-5,0
IRIDIUM 168,2019-002C,2026-07-09T12:36:26.619840,14.34217858,.00022359,86.3988,344.3364,90.8115,269.3337,0,U,43924,999,39217,.11478995E-4,.52E-6,0
IRIDIUM 173,2019-002D,2026-07-09T17:19:34.771872,14.34218212,.00021963,86.3984,344.1423,91.6733,268.4714,0,U,43925,999,39218,.27387757E-4,.96E-6,0
IRIDIUM 169,2019-002E,2026-07-09T23:55:36.884352,14.38613183,.0001745,86.4218,15.6541,99.0711,261.0685,0,U,43926,999,39350,.50210599E-4,.174E-5,0
IRIDIUM 172,2019-002F,2026-07-09T12:09:02.970432,14.34217339,.00021907,86.3982,344.2404,90.3356,269.8091,0,U,43927,999,39216,.59639882E-4,.187E-5,0
IRIDIUM 175,2019-002G,2026-07-10T05:15:19.328544,14.43625623,.00050166,86.4514,280.8941,125.2639,234.9032,0,U,43928,999,40230,.52812973E-4,.199E-5,0
IRIDIUM 171,2019-002H,2026-07-09T16:43:02.912736,14.34217563,.00021962,86.3992,344.4693,94.9593,265.1854,0,U,43929,999,39218,.51838696E-4,.165E-5,0
IRIDIUM 170,2019-002J,2026-07-09T22:25:35.116608,14.72245345,.00023277,86.6105,344.0300,85.6191,274.5292,0,U,43930,999,40260,.78671445E-4,.521E-5,0
IRIDIUM 167,2019-002K,2026-07-09T11:32:30.916896,14.34217555,.00022065,86.3985,344.2735,99.5792,260.5653,0,U,43931,999,39215,.46439061E-4,.15E-5,0
IRIDIUM 181,2023-068S,2026-07-10T02:58:17.431968,14.43310542,.00024415,86.4478,47.1994,84.6564,275.4915,0,U,56726,999,16574,.51624538E-4,.194E-5,0
IRIDIUM 177,2023-068T,2026-07-10T07:25:01.571808,14.80025290,.0002146,86.1981,317.8128,92.8146,267.3320,0,U,56727,999,16978,.89432842E-4,.703E-5,0
IRIDIUM 174,2023-068U,2026-07-09T20:29:50.259552,14.72253743,.00020633,86.6113,344.2132,83.7808,276.3644,0,U,56728,999,16935,.82136732E-4,.543E-5,0
IRIDIUM 178,2023-068V,2026-07-08T22:41:57.081984,14.80025032,.00022733,86.6533,16.2655,87.3865,272.7617,0,U,56729,999,16958,.69253627E-4,.55E-5,0
IRIDIUM 179,2023-068W,2026-07-10T07:01:28.475616,14.80032503,.00022829,86.6765,24.7506,91.5805,268.5678,0,U,56730,999,16978,.80909845E-4,.638E-5,0
